IRIDIUM 150             
1 43257U 18030J   24150.32263348  .00000444  00000+0  15140-3 0  9991
2 43257  86.3985 243.3950 0002107 101.4411 258.7021 14.34218344322826
IRIDIUM 143             
1 43258U 18030K   24150.30360681  .00000352  00000+0  11860-3 0  9991
2 43258  86.3990 243.4661 0002224 102.9242 257.2203 14.34216789322750
IRIDIUM 161             
1 43478U 18047C   24150.46525813  .00000420  00000+0  11895-3 0  9994
2 43478  86.4512  41.3706 0002354  88.9508 271.1963 14.43285436317142
IRIDIUM 152             
1 43479U 18047D   24150.62516604  .00000349  00000+0  11739-3 0  9998
2 43479  86.3987  41.1630 0002190  86.0281 274.1165 14.34219347315195
IRIDIUM 147             
1 43480U 18047E   24150.21289692  .00000209  00000+0  67679-4 0  9999
2 43480  86.3989  41.3275 0002164  82.2407 277.9035 14.34216838315138
IRIDIUM 110             
1 43481U 18047F   24150.21923897  .00000300  00000+0  10361-3 0  9999
2 43481  86.4111  41.3747 0010941  88.8244 271.4204 14.32416183315123
IRIDIUM 162             
1 43482U 18047G   24150.25100390  .00000429  00000+0  12160-3 0  9990
2 43482  86.4511  41.3603 0002121  84.0456 276.0987 14.43283688317106
IRIDIUM 160             
1 43569U 18061A   24150.58369152  .00000206  00000+0  66329-4 0  9991
2 43569  86.3986   9.6283 0002499  80.7486 279.3992 14.34215747306079
